{
  "type": "FeatureCollection",
  "features": [
    {
      "type": "Feature",
      "properties": {
        "norad_id": 57400,
        "name": "TIANMU-1 08",
        "group": "weather",
        "lat": -67.69792557851063,
        "lon": 59.6930533266915,
        "alt_km": 492.42104113540336,
        "timestamp": "2025-12-17T23:38:06.507645+00:00",
        "meta_object_name": "TIANMU-1 08",
        "meta_object_id": "2023-101B",
        "meta_epoch": "2025-12-17T16:04:42.142080",
        "meta_mean_motion": 15.28124772,
        "meta_eccentricity": 0.000735,
        "meta_inclination": 97.2864,
        "meta_ra_of_asc_node": 41.2086,
        "meta_arg_of_pericenter": 69.995,
        "meta_mean_anomaly": 290.208,
        "meta_ephemeris_type": 0,
        "meta_classification_type": "U",
        "meta_norad_cat_id": 57400,
        "meta_element_set_no": 999,
        "meta_rev_at_epoch": 13390,
        "meta_bstar": 0.00021873638,
        "meta_mean_motion_dot": 5.929e-05,
        "meta_mean_motion_ddot": 0,
        "tle_line1": "1 57400U 23101B   25351.66993220  .00005929  00000+0  21874-3 0  9995",
        "tle_line2": "2 57400  97.2864  41.2086 0007350  69.9950 290.2080 15.28124772133904"
      },
      "geometry": {
        "type": "Point",
        "coordinates": [
          59.6930533266915,
          -67.69792557851063
        ]
      }
    },
    {
      "type": "Feature",
      "properties": {
        "norad_id": 57401,
        "name": "TIANMU-1 09",
        "group": "weather",
        "lat": 4.240059526861676,
        "lon": 40.48396267380824,
        "alt_km": 481.9105244702796,
        "timestamp": "2025-12-17T23:38:06.507658+00:00",
        "meta_object_name": "TIANMU-1 09",
        "meta_object_id": "2023-101C",
        "meta_epoch": "2025-12-17T15:45:31.817664",
        "meta_mean_motion": 15.28156468,
        "meta_eccentricity": 0.00066285,
        "meta_inclination": 97.2821,
        "meta_ra_of_asc_node": 40.7064,
        "meta_arg_of_pericenter": 70.4098,
        "meta_mean_anomaly": 289.7857,
        "meta_ephemeris_type": 0,
        "meta_classification_type": "U",
        "meta_norad_cat_id": 57401,
        "meta_element_set_no": 999,
        "meta_rev_at_epoch": 13390,
        "meta_bstar": 0.00021854529,
        "meta_mean_motion_dot": 5.929e-05,
        "meta_mean_motion_ddot": 0,
        "tle_line1": "1 57401U 23101C   25351.65661826  .00005929  00000+0  21855-3 0  9998",
        "tle_line2": "2 57401  97.2821  40.7064 0006628  70.4098 289.7857 15.28156468133907"
      },
      "geometry": {
        "type": "Point",
        "coordinates": [
          40.48396267380824,
          4.240059526861676
        ]
      }
    },
    {
      "type": "Feature",
      "properties": {
        "norad_id": 57402,
        "name": "TIANMU-1 10",
        "group": "weather",
        "lat": 3.527393059198786,
        "lon": -137.6653706492926,
        "alt_km": 485.7545949182413,
        "timestamp": "2025-12-17T23:38:06.507668+00:00",
        "meta_object_name": "TIANMU-1 10",
        "meta_object_id": "2023-101D",
        "meta_epoch": "2025-12-17T15:00:32.615136",
        "meta_mean_motion": 15.28147679,
        "meta_eccentricity": 0.00083719,
        "meta_inclination": 97.2902,
        "meta_ra_of_asc_node": 41.5308,
        "meta_arg_of_pericenter": 69.4306,
        "meta_mean_anomaly": 290.7831,
        "meta_ephemeris_type": 0,
        "meta_classification_type": "U",
        "meta_norad_cat_id": 57402,
        "meta_element_set_no": 999,
        "meta_rev_at_epoch": 13389,
        "meta_bstar": 0.00023574878,
        "meta_mean_motion_dot": 6.402e-05,
        "meta_mean_motion_ddot": 0,
        "tle_line1": "1 57402U 23101D   25351.62537749  .00006402  00000+0  23575-3 0  9990",
        "tle_line2": "2 57402  97.2902  41.5308 0008371  69.4306 290.7831 15.28147679133891"
      },
      "geometry": {
        "type": "Point",
        "coordinates": [
          -137.6653706492926,
          3.527393059198786
        ]
      }
    },
    {
      "type": "Feature",
      "properties": {
        "norad_id": 57490,
        "name": "FENGYUN 3F",
        "group": "weather",
        "lat": -15.837124560604192,
        "lon": -122.29836374561394,
        "alt_km": 830.4118348557422,
        "timestamp": "2025-12-17T23:38:06.507679+00:00",
        "meta_object_name": "FENGYUN 3F",
        "meta_object_id": "2023-111A",
        "meta_epoch": "2025-12-17T15:57:01.935072",
        "meta_mean_motion": 14.1989482,
        "meta_eccentricity": 7.156e-05,
        "meta_inclination": 98.7078,
        "meta_ra_of_asc_node": 59.8784,
        "meta_arg_of_pericenter": 109.6684,
        "meta_mean_anomaly": 250.457,
        "meta_ephemeris_type": 0,
        "meta_classification_type": "U",
        "meta_norad_cat_id": 57490,
        "meta_element_set_no": 999,
        "meta_rev_at_epoch": 12310,
        "meta_bstar": 4.8251565e-05,
        "meta_mean_motion_dot": 5.9e-07,
        "meta_mean_motion_ddot": 0,
        "tle_line1": "1 57490U 23111A   25351.66460573  .00000059  00000+0  48252-4 0  9994",
        "tle_line2": "2 57490  98.7078  59.8784 0000715 109.6684 250.4570 14.19894820123100"
      },
      "geometry": {
        "type": "Point",
        "coordinates": [
          -122.29836374561394,
          -15.837124560604192
        ]
      }
    },
    {
      "type": "Feature",
      "properties": {
        "norad_id": 58584,
        "name": "ARKTIKA-M 2",
        "group": "weather",
        "lat": 60.950019387617786,
        "lon": -120.24999254204992,
        "alt_km": 37035.74173552212,
        "timestamp": "2025-12-17T23:38:06.507691+00:00",
        "meta_object_name": "ARKTIKA-M 2",
        "meta_object_id": "2023-198A",
        "meta_epoch": "2025-12-15T07:41:54.278304",
        "meta_mean_motion": 2.00603484,
        "meta_eccentricity": 0.68650912,
        "meta_inclination": 63.2249,
        "meta_ra_of_asc_node": 174.6089,
        "meta_arg_of_pericenter": 268.096,
        "meta_mean_anomaly": 18.8351,
        "meta_ephemeris_type": 0,
        "meta_classification_type": "U",
        "meta_norad_cat_id": 58584,
        "meta_element_set_no": 999,
        "meta_rev_at_epoch": 1463,
        "meta_bstar": 0,
        "meta_mean_motion_dot": 2.02e-06,
        "meta_mean_motion_ddot": 0,
        "tle_line1": "1 58584U 23198A   25349.32076711  .00000202  00000+0  00000+0 0  9995",
        "tle_line2": "2 58584  63.2249 174.6089 6865091 268.0960  18.8351  2.00603484 14636"
      },
      "geometry": {
        "type": "Point",
        "coordinates": [
          -120.24999254204992,
          60.950019387617786
        ]
      }
    },
    {
      "type": "Feature",
      "properties": {
        "norad_id": 58645,
        "name": "TIANMU-1 11",
        "group": "weather",
        "lat": -69.05503117480313,
        "lon": 31.253355640207285,
        "alt_km": 493.8560142181941,
        "timestamp": "2025-12-17T23:38:06.507704+00:00",
        "meta_object_name": "TIANMU-1 11",
        "meta_object_id": "2023-205A",
        "meta_epoch": "2025-12-17T14:29:31.534944",
        "meta_mean_motion": 15.24659007,
        "meta_eccentricity": 0.00076243,
        "meta_inclination": 97.3601,
        "meta_ra_of_asc_node": 11.1421,
        "meta_arg_of_pericenter": 289.8816,
        "meta_mean_anomaly": 70.16,
        "meta_ephemeris_type": 0,
        "meta_classification_type": "U",
        "meta_norad_cat_id": 58645,
        "meta_element_set_no": 999,
        "meta_rev_at_epoch": 10983,
        "meta_bstar": 0.00021923331,
        "meta_mean_motion_dot": 5.348e-05,
        "meta_mean_motion_ddot": 0,
        "tle_line1": "1 58645U 23205A   25351.60383721  .00005348  00000+0  21923-3 0  9995",
        "tle_line2": "2 58645  97.3601  11.1421 0007624 289.8816  70.1600 15.24659007109831"
      },
      "geometry": {
        "type": "Point",
        "coordinates": [
          31.253355640207285,
          -69.05503117480313
        ]
      }
    },
    {
      "type": "Feature",
      "properties": {
        "norad_id": 58646,
        "name": "TIANMU-1 12",
        "group": "weather",
        "lat": 39.841340267790486,
        "lon": -162.48948484898838,
        "alt_km": 491.5938154318201,
        "timestamp": "2025-12-17T23:38:06.507714+00:00",
        "meta_object_name": "TIANMU-1 12",
        "meta_object_id": "2023-205B",
        "meta_epoch": "2025-12-17T15:08:51.883584",
        "meta_mean_motion": 15.24543435,
        "meta_eccentricity": 0.00057772,
        "meta_inclination": 97.3588,
        "meta_ra_of_asc_node": 10.9727,
        "meta_arg_of_pericenter": 269.1658,
        "meta_mean_anomaly": 90.8918,
        "meta_ephemeris_type": 0,
        "meta_classification_type": "U",
        "meta_norad_cat_id": 58646,
        "meta_element_set_no": 999,
        "meta_rev_at_epoch": 10982,
        "meta_bstar": 0.00021102772,
        "meta_mean_motion_dot": 5.125e-05,
        "meta_mean_motion_ddot": 0,
        "tle_line1": "1 58646U 23205B   25351.63115606  .00005125  00000+0  21103-3 0  9997",
        "tle_line2": "2 58646  97.3588  10.9727 0005777 269.1658  90.8918 15.24543435109821"
      },
      "geometry": {
        "type": "Point",
        "coordinates": [
          -162.48948484898838,
          39.841340267790486
        ]
      }
    }
  ]
}